{
  "norad_id": 61603,
  "name": "ONEWEB-0697",
  "history": [
    {
      "epoch": "2026-03-28T21:13:13.965024Z",
      "apogee_km": 1219.6438217856949,
      "perigee_km": 1215.71526546933,
      "latitude_deg": 1.3483824752512187e-05,
      "longitude_deg": -107.57671987601162,
      "height_km": 1219.9051081363393,
      "semi_major_axis_km": 7595.816543627512,
      "eccentricity": 0.0002586,
      "inclination_deg": 87.8895,
      "raan_deg": 37.0297,
      "arg_perigee_deg": 70.3865,
      "mean_anomaly_deg": 289.7542,
      "mean_motion_rev_day": 13.11417762
    },
    {
      "epoch": "2026-03-29T02:42:50.080032Z",
      "apogee_km": 1219.639613215174,
      "perigee_km": 1215.7216904703537,
      "latitude_deg": 2.1598627176166614e-05,
      "longitude_deg": 169.7517967382599,
      "height_km": 1219.902020231731,
      "semi_major_axis_km": 7595.817651842764,
      "eccentricity": 0.0002579,
      "inclination_deg": 87.8896,
      "raan_deg": 36.9843,
      "arg_perigee_deg": 70.2002,
      "mean_anomaly_deg": 289.9404,
      "mean_motion_rev_day": 13.11417475
    },
    {
      "epoch": "2026-03-30T02:31:06.591360Z",
      "apogee_km": 1219.6121884982422,
      "perigee_km": 1215.7536638921338,
      "latitude_deg": 3.6783642435216366e-06,
      "longitude_deg": 171.5081798246232,
      "height_km": 1219.8856805769676,
      "semi_major_axis_km": 7595.819926195188,
      "eccentricity": 0.00025399,
      "inclination_deg": 87.8898,
      "raan_deg": 36.7871,
      "arg_perigee_deg": 69.2895,
      "mean_anomaly_deg": 290.8505,
      "mean_motion_rev_day": 13.11416886
    },
    {
      "epoch": "2026-03-30T13:30:18.818784Z",
      "apogee_km": 1219.6014243103518,
      "perigee_km": 1215.7634086755852,
      "latitude_deg": -6.300164900571888e-05,
      "longitude_deg": 6.165021347539241,
      "height_km": 1219.8734888977776,
      "semi_major_axis_km": 7595.819416492968,
      "eccentricity": 0.00025264,
      "inclination_deg": 87.8897,
      "raan_deg": 36.6961,
      "arg_perigee_deg": 68.7986,
      "mean_anomaly_deg": 291.3411,
      "mean_motion_rev_day": 13.11417018
    },
    {
      "epoch": "2026-03-30T20:49:47.036064Z",
      "apogee_km": 1219.6024993477213,
      "perigee_km": 1215.7660019504447,
      "latitude_deg": 8.669294282774856e-05,
      "longitude_deg": -104.06405153519556,
      "height_km": 1219.8691173310758,
      "semi_major_axis_km": 7595.821250649083,
      "eccentricity": 0.00025254,
      "inclination_deg": 87.8898,
      "raan_deg": 36.6354,
      "arg_perigee_deg": 68.5914,
      "mean_anomaly_deg": 291.5484,
      "mean_motion_rev_day": 13.11416543
    },
    {
      "epoch": "2026-03-31T13:18:35.445888Z",
      "apogee_km": 1219.587061807615,
      "perigee_km": 1215.7815553320224,
      "latitude_deg": 3.8309544919354575e-05,
      "longitude_deg": 7.920825796345063,
      "height_km": 1219.8526756705778,
      "semi_major_axis_km": 7595.821308569819,
      "eccentricity": 0.0002505,
      "inclination_deg": 87.8899,
      "raan_deg": 36.4988,
      "arg_perigee_deg": 67.871,
      "mean_anomaly_deg": 292.2684,
      "mean_motion_rev_day": 13.11416528
    }
  ]
}